{
    "links": {
        "self": "http://www.neowsapp.com/rest/v1/neo/3582868?api_key=iIulBulltgU6a56xZRHN4H3l9WmuAYTsLGpBGhQ2"
    },
    "id": "3582868",
    "neo_reference_id": "3582868",
    "name": "(2011 UZ114)",
    "designation": "2011 UZ114",
    "nasa_jpl_url": "http://ssd.jpl.nasa.gov/sbdb.cgi?sstr=3582868",
    "absolute_magnitude_h": 25.5,
    "estimated_diameter": {
        "kilometers": {
            "estimated_diameter_min": 0.0211132445,
            "estimated_diameter_max": 0.0472106499
        },
        "meters": {
            "estimated_diameter_min": 21.113244479,
            "estimated_diameter_max": 47.2106498806
        },
        "miles": {
            "estimated_diameter_min": 0.0131191578,
            "estimated_diameter_max": 0.0293353287
        },
        "feet": {
            "estimated_diameter_min": 69.2691770164,
            "estimated_diameter_max": 154.8905885541
        }
    },
    "is_potentially_hazardous_asteroid": false,
    "close_approach_data": [
        {
            "close_approach_date": "2011-11-12",
            "close_approach_date_full": "2011-Nov-12 16:52",
            "epoch_date_close_approach": 1321116720000,
            "relative_velocity": {
                "kilometers_per_second": "7.6138700905",
                "kilometers_per_hour": "27409.9323257802",
                "miles_per_hour": "17031.4660054271"
            },
            "miss_distance": {
                "astronomical": "0.0329635953",
                "lunar": "12.8228385717",
                "kilometers": "4931283.644422011",
                "miles": "3064157.5697693118"
            },
            "orbiting_body": "Earth"
        },
        {
            "close_approach_date": "2012-04-08",
            "close_approach_date_full": "2012-Apr-08 11:07",
            "epoch_date_close_approach": 1333883220000,
            "relative_velocity": {
                "kilometers_per_second": "12.044508111",
                "kilometers_per_hour": "43360.2291996169",
                "miles_per_hour": "26942.3601935064"
            },
            "miss_distance": {
                "astronomical": "0.0735408822",
                "lunar": "28.6074031758",
                "kilometers": "11001559.335040914",
                "miles": "6836051.9788520532"
            },
            "orbiting_body": "Mars"
        }
    ],
    "orbital_data": {
        "orbit_id": "9",
        "orbit_determination_date": "2017-04-06 08:52:15",
        "first_observation_date": "2011-10-24",
        "last_observation_date": "2011-11-10",
        "data_arc_in_days": 17,
        "observations_used": 32,
        "orbit_uncertainty": "8",
        "minimum_orbit_intersection": ".00707442",
        "jupiter_tisserand_invariant": "3.788",
        "epoch_osculation": "2455862.5",
        "eccentricity": ".4844111658500748",
        "semi_major_axis": "1.906884397696647",
        "inclination": "1.240831190067551",
        "ascending_node_longitude": "226.3002394829098",
        "orbital_period": "961.8004476190498",
        "perihelion_distance": ".9831683034670965",
        "perihelion_argument": "209.438683881477",
        "aphelion_distance": "2.830600491926197",
        "perihelion_time": "2455898.607108917035",
        "mean_anomaly": "346.4851807437699",
        "mean_motion": ".3742980166948195",
        "equinox": "J2000",
        "orbit_class": {
            "orbit_class_type": "APO",
            "orbit_class_description": "Near-Earth asteroid orbits which cross the Earth’s orbit similar to that of 1862 Apollo",
            "orbit_class_range": "a (semi-major axis) > 1.0 AU; q (perihelion) < 1.017 AU"
        }
    },
    "is_sentry_object": false
}